ARABSAT-7B (BADR-8)     
1 56757U 23075A   26156.63966262  .00000157  00000+0  00000+0 0  9998
2 56757   0.0749  26.6091 0004933 356.9344 126.8188  1.00272024 11003
NVS-01 (IRNSS-1J)       
1 56759U 23076A   26157.61425741 -.00000322  00000+0  00000+0 0  9997
2 56759   2.1918 244.8344 0002923  41.8681 319.0585  1.00270810 11011
NUSANTARA TIGA (SATRIA) 
1 57045U 23086A   26156.73473477 -.00000222  00000+0  00000+0 0  9997
2 57045   0.0379 343.7809 0003568   1.5282 319.3542  1.00269213  9646
H2SAT (HEINRICH HERTZ)  
1 57213U 23093A   26155.13748118  .00000014  00000+0  00000+0 0  9990
2 57213   0.0448 123.4904 0000974 332.0680 207.2004  1.00272490 10787
SYRACUSE 4B             
1 57214U 23093B   26156.77582098 -.00000040  00000+0  00000+0 0  9995
2 57214   0.0174  10.2429 0000219 144.0914  12.7461  1.00274225  6859
JUPITER 3 (ECHOSTAR 24) 
1 57479U 23108A   26155.56176191  .00000000  00000+0  00000+0 0  9999
2 57479   0.0197 333.9789 0001202  99.7783 286.2561  1.00269922 10520
GALAXY 37 (G-37)        
1 57493U 23112A   26157.53616992  .00000061  00000+0  00000+0 0  9994
2 57493   0.0183 326.4759 0002110 109.7843 244.7203  1.00271478 10434
LUDI TANCE-4 01A        
1 57624U 23120A   26156.58766993 -.00000165  00000+0  00000+0 0  9996
2 57624  15.1089 194.2573 0000804  79.8156 281.2254  1.00271875 10432
TJS-10                  
1 58204U 23169A   26156.72079656 -.00000236  00000+0  00000+0 0  9992
2 58204   2.5143  80.6266 0003866  97.4341  68.0041  1.00268972  9424
ZHONGXING-6E            
1 58253U 23172A   26157.51289848  .00000000  00000+0  00000+0 0  9992
2 58253   0.0133 353.7190 0002492  87.0509 114.3449  1.00267668  9557
YAOGAN-41               
1 58582U 23197A   26156.30241932 -.00000351  00000+0  00000+0 0  9992
2 58582   3.1509 312.9485 0014164 192.1434 340.6332  1.00277565  9205
OVZON-3                 
1 58698U 24003A   26157.58335623  .00000065  00000+0  00000+0 0  9990
2 58698   0.0141 150.9698 0000132 330.8783  42.8682  1.00271482  7349
INSAT-3DS               
1 58990U 24033A   26157.61098289 -.00000143  00000+0  00000+0 0  9994
2 58990   0.0063 272.1219 0001346 160.8985 124.0317  1.00273537 46968
MERAH PUTIH 2           
1 58995U 24035A   26157.58374708 -.00000344  00000+0  00000+0 0  9993
2 58995   0.0175 294.8315 0001354 136.0518 147.2276  1.00272574  8487
TJS-11                  
1 59020U 24037A   26157.51246515 -.00000338  00000+0  00000+0 0  9995
2 59020   4.2121 326.9211 0004037 138.4296  87.0617  1.00069305  8471
HULIANWAN GAOGUI-01 (H*)
1 59069U 24040A   26157.49669175  .00000169  00000+0  00000+0 0  9991
2 59069   0.0685 326.5665 0003297  75.0225  65.7602  1.00271032  7228
EUTELSAT 36D            
1 59346U 24059A   26157.56845198  .00000169  00000+0  00000+0 0  9998
2 59346   0.0171  13.0889 0000393 142.0159 340.4068  1.00271143  8040
PAKSAT-MM1              
1 59915U 24104A   26154.64578588  .00000165  00000+0  00000+0 0  9999
2 59915   0.0154  42.0049 0002046  27.2826  93.4750  1.00274914  7394
ASTRA 1P (SES-24)       
1 60086U 24115A   26156.78093435  .00000132  00000+0  00000+0 0  9996
2 60086   0.0643  14.2112 0000729 359.6761 180.6635  1.00270482  7089
GOES 19                 
1 60133U 24119A   26157.54648330 -.00000235  00000+0  00000+0 0  9993
2 60133   0.0381 148.5192 0000665 349.9174 238.0706  1.00270710  6854
ZHONGXING-3A            
1 60179U 24122A   26156.36948149 -.00000301  00000+0  00000+0 0  9991
2 60179   0.0447 110.7697 0001356 342.1643  35.4546  1.00273621  7195
TURKSAT 6A              
1 60233U 24127A   26157.56966531  .00000160  00000+0  00000+0 0  9997
2 60233   0.0453 162.5061 0001683 321.3840  18.1767  1.00271867  6916
HULIANWAN GAOGUI-02 (H*)
1 60327U 24135A   26156.23713160 -.00000160  00000+0  00000+0 0  9992
2 60327   0.0419 353.0776 0007984  15.1546 124.0045  1.00271173  7381
ZHONGXING-4A            
1 60606U 24151A   26157.58478708 -.00000349  00000+0  00000+0 0  9994
2 60606   1.3425 270.9614 0000552 195.8835 116.9147  1.00271328  6644
HULIANWAN GAOGUI-03 (H*)
1 61503U 24181A   26156.61920917 -.00000229  00000+0  00000+0 0  9998
2 61503   0.0446 357.1623 0001490 106.3545 296.3114  1.00270862  6701
DSN-3 (KIRAMEKI-3)      
1 61733U 24198A   26157.58990044 -.00000236  00000+0  00000+0 0  9994
2 61733   0.0233 281.5112 0000877 225.1909 104.7464  1.00271436  5814
KOREASAT 6A             
1 61910U 24206A   26156.80004359 -.00000349  00000+0  00000+0 0  9995
2 61910   0.0202  85.2997 0000997 352.4940 220.4354  1.00268534  5728
OPTUS-X (ADS-01)        
1 62006U 24212A   26157.52104675 -.00000130  00000+0  00000+0 0  9999
2 62006   0.0117 298.9447 0001781 174.6118 125.3730  1.00271588  5652
GSAT-N2 (GSAT-20)       
1 62028U 24214A   26157.63152895 -.00000006  00000+0  00000+0 0  9996
2 62028   0.0118 291.5990 0002163 138.3001 120.5394  1.00269060  5792
SXM-9                   
1 62259U 24234A   26156.90278507 -.00000192  00000+0  00000+0 0  9998
2 62259   0.0145 326.8597 0004717 350.2099 177.1093  1.00270936  5464
TJS-12                  
1 62374U 24246A   26157.59033377 -.00000217  00000+0  00000+0 0  9997
2 62374   0.6945 298.0969 0002296  88.5223 227.4631  1.00273200  5452
