OBJECT_NAME,OBJECT_ID,EPOCH,MEAN_MOTION,ECCENTRICITY,INCLINATION,RA_OF_ASC_NODE,ARG_OF_PERICENTER,MEAN_ANOMALY,EPHEMERIS_TYPE,CLASSIFICATION_TYPE,NORAD_CAT_ID,ELEMENT_SET_NO,REV_AT_EPOCH,BSTAR,MEAN_MOTION_DOT,MEAN_MOTION_DDOT
ARABSAT-7B (BADR-8),2023-075A,2026-06-05T15:21:06.850368,1.00272024,.00049339,0.0749,26.6091,356.9344,126.8188,0,U,56757,999,1100,0,.157E-5,0
NVS-01 (IRNSS-1J),2023-076A,2026-06-06T14:44:31.840224,1.00270810,.00029232,2.1918,244.8344,41.8681,319.0585,0,U,56759,999,1101,0,-.322E-5,0
NUSANTARA TIGA (SATRIA),2023-086A,2026-06-05T17:38:01.084128,1.00269213,.00035681,0.0379,343.7809,1.5282,319.3542,0,U,57045,999,964,0,-.222E-5,0
H2SAT (HEINRICH HERTZ),2023-093A,2026-06-04T03:17:58.373952,1.00272490,.00009749,0.0448,123.4904,332.0680,207.2004,0,U,57213,999,1078,0,.14E-6,0
SYRACUSE 4B,2023-093B,2026-06-05T18:37:10.932672,1.00274225,.00002199,0.0174,10.2429,144.0914,12.7461,0,U,57214,999,685,0,-.4E-6,0
JUPITER 3 (ECHOSTAR 24),2023-108A,2026-06-04T13:28:56.229024,1.00269922,.00012025,0.0197,333.9789,99.7783,286.2561,0,U,57479,999,1052,0,0,0
GALAXY 37 (G-37),2023-112A,2026-06-06T12:52:05.081088,1.00271478,.00021106,0.0183,326.4759,109.7843,244.7203,0,U,57493,999,1043,0,.61E-6,0
LUDI TANCE-4 01A,2023-120A,2026-06-05T14:06:14.681952,1.00271875,.0000804,15.1089,194.2573,79.8156,281.2254,0,U,57624,999,1043,0,-.165E-5,0
TJS-10,2023-169A,2026-06-05T17:17:56.822784,1.00268972,.0003866,2.5143,80.6266,97.4341,68.0041,0,U,58204,999,942,0,-.236E-5,0
ZHONGXING-6E,2023-172A,2026-06-06T12:18:34.428672,1.00267668,.00024923,0.0133,353.7190,87.0509,114.3449,0,U,58253,999,955,0,0,0
YAOGAN-41,2023-197A,2026-06-05T07:15:29.029248,1.00277565,.0014164,3.1509,312.9485,192.1434,340.6332,0,U,58582,999,920,0,-.351E-5,0
OVZON-3,2024-003A,2026-06-06T14:00:01.978272,1.00271482,.00001329,0.0141,150.9698,330.8783,42.8682,0,U,58698,999,734,0,.65E-6,0
INSAT-3DS,2024-033A,2026-06-06T14:39:48.921696,1.00273537,.00013461,0.0063,272.1219,160.8985,124.0317,0,U,58990,999,4696,0,-.143E-5,0
MERAH PUTIH 2,2024-035A,2026-06-06T14:00:35.747712,1.00272574,.00013546,0.0175,294.8315,136.0518,147.2276,0,U,58995,999,848,0,-.344E-5,0
TJS-11,2024-037A,2026-06-06T12:17:56.988960,1.00069305,.0004037,4.2121,326.9211,138.4296,87.0617,0,U,59020,999,847,0,-.338E-5,0
HULIANWAN GAOGUI-01 (HG-01),2024-040A,2026-06-06T11:55:14.167200,1.00271032,.00032978,0.0685,326.5665,75.0225,65.7602,0,U,59069,999,722,0,.169E-5,0
EUTELSAT 36D,2024-059A,2026-06-06T13:38:34.251072,1.00271143,.0000393,0.0171,13.0889,142.0159,340.4068,0,U,59346,999,804,0,.169E-5,0
PAKSAT-MM1,2024-104A,2026-06-03T15:29:55.900032,1.00274914,.00020461,0.0154,42.0049,27.2826,93.4750,0,U,59915,999,739,0,.165E-5,0
ASTRA 1P (SES-24),2024-115A,2026-06-05T18:44:32.727840,1.00270482,.00007296,0.0643,14.2112,359.6761,180.6635,0,U,60086,999,708,0,.132E-5,0
GOES 19,2024-119A,2026-06-06T13:06:56.157120,1.00270710,.00006656,0.0381,148.5192,349.9174,238.0706,0,U,60133,999,685,0,-.235E-5,0
ZHONGXING-3A,2024-122A,2026-06-05T08:52:03.200736,1.00273621,.0001356,0.0447,110.7697,342.1643,35.4546,0,U,60179,999,719,0,-.301E-5,0
TURKSAT 6A,2024-127A,2026-06-06T13:40:19.082784,1.00271867,.00016835,0.0453,162.5061,321.3840,18.1767,0,U,60233,999,691,0,.16E-5,0
HULIANWAN GAOGUI-02 (HG-02),2024-135A,2026-06-05T05:41:28.170240,1.00271173,.0007984,0.0419,353.0776,15.1546,124.0045,0,U,60327,999,738,0,-.16E-5,0
ZHONGXING-4A,2024-151A,2026-06-06T14:02:05.603712,1.00271328,.0000552,1.3425,270.9614,195.8835,116.9147,0,U,60606,999,664,0,-.349E-5,0
HULIANWAN GAOGUI-03 (HG-03),2024-181A,2026-06-05T14:51:39.672288,1.00270862,.00014908,0.0446,357.1623,106.3545,296.3114,0,U,61503,999,670,0,-.229E-5,0
DSN-3 (KIRAMEKI-3),2024-198A,2026-06-06T14:09:27.398016,1.00271436,.00008772,0.0233,281.5112,225.1909,104.7464,0,U,61733,999,581,0,-.236E-5,0
KOREASAT 6A,2024-206A,2026-06-05T19:12:03.766176,1.00268534,.00009978,0.0202,85.2997,352.4940,220.4354,0,U,61910,999,572,0,-.349E-5,0
OPTUS-X (ADS-01),2024-212A,2026-06-06T12:30:18.439200,1.00271588,.00017819,0.0117,298.9447,174.6118,125.3730,0,U,62006,999,565,0,-.13E-5,0
GSAT-N2 (GSAT-20),2024-214A,2026-06-06T15:09:24.101280,1.00269060,.00021634,0.0118,291.5990,138.3001,120.5394,0,U,62028,999,579,0,-.6E-7,0
SXM-9,2024-234A,2026-06-05T21:40:00.630048,1.00270936,.0004717,0.0145,326.8597,350.2099,177.1093,0,U,62259,999,546,0,-.192E-5,0
TJS-12,2024-246A,2026-06-06T14:10:04.837728,1.00273200,.00022968,0.6945,298.0969,88.5223,227.4631,0,U,62374,999,545,0,-.217E-5,0
